{"fetched_at":"2026-03-29T16:36:15Z","count":15609,"tles":[{"name":"STARLINK-35680","line1":"1 66610U 25270Y   26087.89927884  .00021090  00000+0  77330-3 0  9997","line2":"2 66610  42.9992 307.6993 0001485 265.5928  94.4754 15.27597960 20756","category":"Starlink"}]}