{
  "norad_id": 66610,
  "name": "STARLINK-35680",
  "history": [
    {
      "epoch": "2026-03-28T21:34:57.691776Z",
      "apogee_km": 484.01447045997156,
      "perigee_km": 481.97616527097944,
      "latitude_deg": 7.3151637363692535e-06,
      "longitude_deg": 157.6458198042552,
      "height_km": 482.8502997091262,
      "semi_major_axis_km": 6861.132317865475,
      "eccentricity": 0.00014854,
      "inclination_deg": 42.9992,
      "raan_deg": 307.6993,
      "arg_perigee_deg": 265.5928,
      "mean_anomaly_deg": 94.4754,
      "mean_motion_rev_day": 15.2759796
    }
  ]
}